MALLIGYONG-1            
1 58400U 23179A   24211.93423975  .00006568  00000+0  29337-3 0  9992
2 58400  97.3981  98.0590 0003318  72.1802 287.9796 15.21676268 38229
